
# Worst residual: 37.37 km
# MJD 59772.000000 (2022 Jul 12  0:00)
WE0913A = DSCOVR object = 2015-007B = NORAD 40391
1 40391U 15007B   22193.49919926  .00000000  00000-0  00000-0 2 14512
2 40391 039.9588 359.7882 7361450 140.3089 060.0431 00.02750088    08

# Worst residual: 34.27 km
# MJD 59773.000000 (2022 Jul 13  0:00)
WE0913A = DSCOVR object = 2015-007B = NORAD 40391
1 40391U 15007B   22194.49919926  .00000000  00000-0  00000-0 2 14513
2 40391 040.0695 359.2339 7339440 140.2752 071.4391 00.02793993    05

# Worst residual: 24.60 km
# MJD 59774.000000 (2022 Jul 14  0:00)
WE0913A = DSCOVR object = 2015-007B = NORAD 40391
1 40391U 15007B   22195.49919926  .00000000  00000-0  00000-0 2 14514
2 40391 040.1812 358.8038 7315404 140.3389 082.6916 00.02820030    09

# Worst residual: 14.41 km
# MJD 59775.000000 (2022 Jul 15  0:00)
WE0913A = DSCOVR object = 2015-007B = NORAD 40391
1 40391U 15007B   22196.49919926  .00000000  00000-0  00000-0 2 14515
2 40391 040.2825 358.4831 7300845 140.4211 093.6159 00.02833473    05

# Worst residual: 7.61 km
# MJD 59776.000000 (2022 Jul 16  0:00)
WE0913A = DSCOVR object = 2015-007B = NORAD 40391
1 40391U 15007B   22197.49919926  .00000000  00000-0  00000-0 2 14516
2 40391 040.3881 358.1973 7302967 140.4989 104.2404 00.02841876    09

# Worst residual: 11.46 km
# MJD 59777.000000 (2022 Jul 17  0:00)
WE0913A = DSCOVR object = 2015-007B = NORAD 40391
1 40391U 15007B   22198.49919926  .00000000  00000-0  00000-0 2 14517
2 40391 040.5136 357.9002 7321064 140.5980 114.6242 00.02848888    00

# Worst residual: 17.06 km
# MJD 59778.000000 (2022 Jul 18  0:00)
WE0913A = DSCOVR object = 2015-007B = NORAD 40391
1 40391U 15007B   22199.49919926  .00000000  00000-0  00000-0 2 14518
2 40391 040.6683 357.5746 7352777 140.7422 124.8043 00.02856026    02

# Worst residual: 21.63 km
# MJD 59779.000000 (2022 Jul 19  0:00)
WE0913A = DSCOVR object = 2015-007B = NORAD 40391
1 40391U 15007B   22200.49919926  .00000000  00000-0  00000-0 2 14511
2 40391 040.8562 357.2200 7394894 140.9484 134.8007 00.02863779    02

# Worst residual: 25.28 km
# MJD 59780.000000 (2022 Jul 20  0:00)
WE0913A = DSCOVR object = 2015-007B = NORAD 40391
1 40391U 15007B   22201.49919926  .00000000  00000-0  00000-0 2 14512
2 40391 041.0776 356.8432 7444342 141.2231 144.6296 00.02872356    02

# Worst residual: 28.11 km
# MJD 59781.000000 (2022 Jul 21  0:00)
WE0913A = DSCOVR object = 2015-007B = NORAD 40391
1 40391U 15007B   22202.49919926  .00000000  00000-0  00000-0 2 14513
2 40391 041.3303 356.4533 7498414 141.5657 154.3081 00.02881899    05

# Worst residual: 30.19 km
# MJD 59782.000000 (2022 Jul 22  0:00)
WE0913A = DSCOVR object = 2015-007B = NORAD 40391
1 40391U 15007B   22203.49919926  .00000000  00000-0  00000-0 2 14514
2 40391 041.6107 356.0604 7554808 141.9703 163.8564 00.02892544    01

# Worst residual: 31.59 km
# MJD 59783.000000 (2022 Jul 23  0:00)
WE0913A = DSCOVR object = 2015-007B = NORAD 40391
1 40391U 15007B   22204.49919926  .00000000  00000-0  00000-0 2 14515
2 40391 041.9139 355.6740 7611598 142.4279 173.2973 00.02904425    00

# Worst residual: 32.36 km
# MJD 59784.000000 (2022 Jul 24  0:00)
WE0913A = DSCOVR object = 2015-007B = NORAD 40391
1 40391U 15007B   22205.49919926  .00000000  00000-0  00000-0 2 14516
2 40391 042.2339 355.3028 7667177 142.9278 182.6556 00.02917670    07

# Worst residual: 32.54 km
# MJD 59785.000000 (2022 Jul 25  0:00)
WE0913A = DSCOVR object = 2015-007B = NORAD 40391
1 40391U 15007B   22206.49919926  .00000000  00000-0  00000-0 2 14517
2 40391 042.5636 354.9549 7720202 143.4582 191.9585 00.02932391    08

# Worst residual: 32.19 km
# MJD 59786.000000 (2022 Jul 26  0:00)
WE0913A = DSCOVR object = 2015-007B = NORAD 40391
1 40391U 15007B   22207.49919926  .00000000  00000-0  00000-0 2 14518
2 40391 042.8953 354.6370 7769557 144.0071 201.2350 00.02948677    07

# Worst residual: 31.28 km
# MJD 59787.000000 (2022 Jul 27  0:00)
WE0913A = DSCOVR object = 2015-007B = NORAD 40391
1 40391U 15007B   22208.49919926  .00000000  00000-0  00000-0 2 14519
2 40391 043.2206 354.3544 7814323 144.5626 210.5165 00.02966585    01

# Worst residual: 29.80 km
# MJD 59788.000000 (2022 Jul 28  0:00)
WE0913A = DSCOVR object = 2015-007B = NORAD 40391
1 40391U 15007B   22209.49919926  .00000000  00000-0  00000-0 2 14510
2 40391 043.5310 354.1112 7853775 145.1128 219.8360 00.02986127    00

# Worst residual: 27.78 km
# MJD 59789.000000 (2022 Jul 29  0:00)
WE0913A = DSCOVR object = 2015-007B = NORAD 40391
1 40391U 15007B   22210.49919926  .00000000  00000-0  00000-0 2 14512
2 40391 043.8179 353.9093 7887378 145.6464 229.2288 00.03007256    07

# Worst residual: 25.26 km
# MJD 59790.000000 (2022 Jul 30  0:00)
WE0913A = DSCOVR object = 2015-007B = NORAD 40391
1 40391U 15007B   22211.49919926  .00000000  00000-0  00000-0 2 14513
2 40391 044.0738 353.7492 7914793 146.1529 238.7310 00.03029847    03

# Worst residual: 22.28 km
# MJD 59791.000000 (2022 Jul 31  0:00)
WE0913A = DSCOVR object = 2015-007B = NORAD 40391
1 40391U 15007B   22212.49919926  .00000000  00000-0  00000-0 2 14514
2 40391 044.2921 353.6292 7935886 146.6226 248.3790 00.03053677    08

# Worst residual: 20.25 km
# MJD 59792.000000 (2022 Aug  1  0:00)
WE0913A = DSCOVR object = 2015-007B = NORAD 40391
1 40391U 15007B   22213.49919926  .00000000  00000-0  00000-0 2 14515
2 40391 044.4682 353.5457 7950738 147.0468 258.2085 00.03078388    05

# Worst residual: 19.96 km
# MJD 59793.000000 (2022 Aug  2  0:00)
WE0913A = DSCOVR object = 2015-007B = NORAD 40391
1 40391U 15007B   22214.49919926  .00000000  00000-0  00000-0 2 14516
2 40391 044.5999 353.4935 7959656 147.4177 268.2525 00.03103455    00

# Worst residual: 18.82 km
# MJD 59794.000000 (2022 Aug  3  0:00)
WE0913A = DSCOVR object = 2015-007B = NORAD 40391
1 40391U 15007B   22215.49919926  .00000000  00000-0  00000-0 2 14517
2 40391 044.6874 353.4659 7963205 147.7285 278.5398 00.03128126    08

# Worst residual: 16.70 km
# MJD 59795.000000 (2022 Aug  4  0:00)
WE0913A = DSCOVR object = 2015-007B = NORAD 40391
1 40391U 15007B   22216.49919926  .00000000  00000-0  00000-0 2 14518
2 40391 044.7341 353.4552 7962252 147.9734 289.0918 00.03151357    09
